[
    {
        "Altitude(m)": 555601.0547809134,
        "Argument of Periapsis(deg)": 0.033114955553567506,
        "Eccentricity": 0.0,
        "Inclination(deg)": 53.0,
        "Latitude(deg)": 33.25968558740045,
        "Longitude(deg)": -159.5465783130962,
        "Mean Anomaly(deg)": 43.185364337887876,
        "RAAN(deg)": 274.9507168426401,
        "Satellite Name": "Starlink Shell 1 1231",
        "Satellite Number": 1231,
        "Semi-Major Axis(m)": 6931778.249405717,
        "Time(s)": 950
    },
    {
        "Altitude(m)": 555680.9349746977,
        "Argument of Periapsis(deg)": 0.03346353403307874,
        "Eccentricity": 0.0,
        "Inclination(deg)": 53.0,
        "Latitude(deg)": 33.69619277593921,
        "Longitude(deg)": -159.0474851240548,
        "Mean Anomaly(deg)": 43.81219554144463,
        "RAAN(deg)": 274.9501980725626,
        "Satellite Name": "Starlink Shell 1 1231",
        "Satellite Number": 1231,
        "Semi-Major Axis(m)": 6931778.249405717,
        "Time(s)": 960
    },
    {
        "Altitude(m)": 555761.422273172,
        "Argument of Periapsis(deg)": 0.03381211251258998,
        "Eccentricity": 0.0,
        "Inclination(deg)": 53.0,
        "Latitude(deg)": 34.130281666208084,
        "Longitude(deg)": -158.54292004905298,
        "Mean Anomaly(deg)": 44.43902674500138,
        "RAAN(deg)": 274.9496793024851,
        "Satellite Name": "Starlink Shell 1 1231",
        "Satellite Number": 1231,
        "Semi-Major Axis(m)": 6931778.249405717,
        "Time(s)": 970
    },
    {
        "Altitude(m)": 555842.4610796191,
        "Argument of Periapsis(deg)": 0.034160690992101214,
        "Eccentricity": 0.0,
        "Inclination(deg)": 53.0,
        "Latitude(deg)": 34.561888558685915,
        "Longitude(deg)": -158.03276774639298,
        "Mean Anomaly(deg)": 45.065857948558076,
        "RAAN(deg)": 274.94916053240763,
        "Satellite Name": "Starlink Shell 1 1231",
        "Satellite Number": 1231,
        "Semi-Major Axis(m)": 6931778.249405717,
        "Time(s)": 980
    },
    {
        "Altitude(m)": 555923.9957239493,
        "Argument of Periapsis(deg)": 0.034509269471612446,
        "Eccentricity": 0.0,
        "Inclination(deg)": 53.0,
        "Latitude(deg)": 34.990948281766876,
        "Longitude(deg)": -157.51691144114943,
        "Mean Anomaly(deg)": 45.69268915211471,
        "RAAN(deg)": 274.9486417623302,
        "Satellite Name": "Starlink Shell 1 1231",
        "Satellite Number": 1231,
        "Semi-Major Axis(m)": 6931778.249405717,
        "Time(s)": 990
    }
]